ORBCOMM-X               
1 21576U 91050C   25273.12906720  .00000664  00000+0  20971-3 0  9999
2 21576  98.3327 337.5401 0002887 212.4948 147.6065 14.43342121797257
ORBCOMM FM01            
1 23545U 95017A   25273.08616773  .00016582  00000+0  16620-2 0  9996
2 23545  69.9630 172.3398 0003804 203.7146 156.3835 14.91405482628145
ORBCOMM FM02            
1 23546U 95017B   25273.09344700  .00018905  00000+0  18375-2 0  9996
2 23546  69.9641 191.3239 0004962 193.3440 166.7586 14.92591469627802
ORBCOMM FM08            
1 25112U 97084A   25272.92248103  .00003636  00000+0  10470-2 0  9997
2 25112  45.0122 224.9713 0006037  39.2883 320.8406 14.46166314456536
ORBCOMM FM10            
1 25113U 97084B   25272.91944567  .00003807  00000+0  10993-2 0  9994
2 25113  45.0135 227.5542 0005707   2.9814 357.1071 14.45939595631673
ORBCOMM FM11            
1 25114U 97084C   25273.08042228  .00003905  00000+0  11325-2 0  9996
2 25114  45.0119 227.6061 0006416   7.7308 352.3642 14.45685666456653
ORBCOMM FM12            
1 25115U 97084D   25272.83413824  .00004058  00000+0  11748-2 0  9992
2 25115  45.0128 228.5276 0005664   0.8584 359.2276 14.45703398456412
ORBCOMM FM09            
1 25116U 97084E   25273.08313316  .00003683  00000+0  10731-2 0  9990
2 25116  45.0132 228.3736 0007057 357.1459   2.9351 14.45566331456650
